STARLINK-2329
1 27873C 21021P   21325.13940564  .00001559  00000-0  10446-3 0  3251
2 27873  53.0506 107.6012 0001367  71.3544  53.8214 15.06385898    15
